#cP2021  3 19  0  0  0.00000000      96 d     IGb14 FIT AIUB
## 2149 432000.00000000   900.00000000 59292 0.0000000000000
+   76   G01G02G03G04G05G06G07G08G09G10G11G12G13G14G15G16G17
+        G18G19G20G21G22G23G24G25G26G27G28G29G30G31G32R01R02
+        R03R04R05R07R08R09R11R12R13R14R15R16R17R18R19R20R21
+        R22R24E01E02E03E04E05E07E08E09E11E12E13E14E15E18E19
+        E21E24E25E26E27E30E31E33  0  0  0  0  0  0  0  0  0
++         5  5  5  6  5  5  5  6  6  5  5  5  6  5  6  5  6
++         5  6  5  5  5  5  9  5  5  6  5  6  5  5  6  5  5
++         5  5  5  5  5  5  5  5  6  5  5  5  5  5  6  6  5
++         5  5  5  5  5  5  5  5  5  5  5  5  5  6  5  6  5
++         5  5  5  5  5  5  5  5  0  0  0  0  0  0  0  0  0
%c M  cc GPS ccc cccc cccc cccc cccc ccccc ccccc ccccc ccccc
%c cc cc ccc ccc cccc cccc cccc cccc ccccc ccccc ccccc ccccc
%f  1.2500000  1.025000000  0.00000000000  0.000000000000000
%f  0.0000000  0.000000000  0.00000000000  0.000000000000000
%i    0    0    0    0      0      0      0      0         0
%i    0    0    0    0      0      0      0      0         0
/* Center for Orbit Determination in Europe (CODE)          
/* Rapid GNSS orbits and clocks for year-day 21078          
/* Note: Middle day of a 3-day arc GRE solution             
/* PCV:IGS14      OL/AL:FES2014b NONE     YN ORB:CoN CLK:CoN
*  2021  3 19 19 45  0.00000000
PG01  14052.300370 -21012.782174   7300.514519    737.401956
PG02 -15426.469169    217.507181 -20969.519693   -587.692684
PG03  17752.657848 -12850.930398 -15006.057451   -112.653598
PG04   9031.440096 -12960.532605 -21340.064408   -187.138023
PG05 -26378.778822   3753.306187  -1162.894658    -36.672980
PG06  -9284.234750 -13717.470712 -20685.385469      1.739916
PG07   5407.003902 -24985.998891   6509.420705     95.228156
PG08  14676.779643  -5368.052062  21511.689019    -14.349281
PG09  -1526.759387 -20709.596062 -16602.960267   -332.395699
PG10  12133.972295  12399.955491  20298.461016    -84.402932
PG11  10438.276063 -18410.491300  15820.570292      5.712679
PG12 -21149.006327  10007.358481 -12677.876627    -16.218146
PG13 -18007.648759  -5307.170024  18705.260680    109.763273
PG14 -10233.320232 -13508.302610  20444.508860     99.741187
PG15 -14390.330431   7438.147543  20732.368318   -162.015810
PG16  26578.983698   1195.754968  -3571.549209   -296.521718
PG17 -13451.726162 -22791.210030   2661.273193    412.400020
PG18  -3560.561797  24545.897601   9415.135820    350.836809
PG19 -17188.816361 -19295.511931  -6638.052250    -24.194462
PG20  -3603.457562  16573.879396  20322.732285    524.043787
PG21  16187.736419 -14850.666387  15320.672242    104.431845
PG22  23532.203357 -10293.461414  -6180.717224   -656.939692
PG23   -419.719855  15331.035374  21660.704875    117.073062
PG24 -15292.891650  17478.528974  12279.572454      0.843845
PG25  -7920.943585  15410.552660 -20314.935759    102.046917
PG26  22693.178431   5479.041467 -12968.812718     60.365480
PG27  19684.347331   7419.546231  16271.620790    -97.055138
PG28 -12281.129316 -13126.423371  20047.396775    599.714115
PG29    678.514782  20798.693241 -16524.477636   -314.799744
PG30  -4191.331157 -20409.779169  16391.351975   -400.786804
PG31  11596.243089  10929.709083 -21263.504206   -106.565300
PG32  15983.527541  21314.578760    902.516456     21.438510
PR01  19984.727318  13105.994175   8902.092161     76.616619
PR02  22243.075999   3949.903218 -11859.298940    471.393084
PR03  10154.333413  -7064.174418 -22269.956532     32.670790
PR04  -7624.328712 -13738.363862 -20062.407798     78.598479
PR05 -20992.721702 -12877.477039  -6587.721905     68.431618
PR07  -9454.647105   7491.365210  22509.688317    -42.566883
PR08   7613.426186  13870.993372  20071.368485    -58.037192
PR09 -21147.905069   8766.871083  11334.481579    -16.326040
PR11  -5020.276874  15392.640171 -19707.482365      2.106097
PR12  11570.007060   4661.971248 -22233.538988    213.890926
PR13  20896.758204  -8504.351825 -11927.507613    -52.239585
PR14  18108.434552 -16899.272775   6080.527661     62.178194
PR15   4791.620040 -15243.884788  19898.063888    104.823012
PR16 -12392.516997  -3916.198101  21896.778984    -12.744154
PR17   5894.232594 -18211.055189  16887.978063    409.355996
PR18  -1683.866787 -25372.948344   1575.428597     70.335554
PR19  -7635.676071 -19879.287160 -14036.862809   -136.369714
PR20 -10380.236638   -340.247024 -23286.797690    -45.605484
PR21  -5428.954499  19048.210717 -16060.159353   -195.601468
PR22   2078.765390  25475.824349   -428.323895   -103.458534
PR24  10813.219256   -602.336056  23113.456297     35.611008
PE01 -17010.848427  17738.085390 -16494.747348  -1068.986930
PE02  16935.510537 -17758.892633  16560.403582    206.170172
PE03   5767.433311 -16981.912895 -23548.623019   -410.696411
PE04  12979.447443  23193.977950  13036.727760   -732.334113
PE05  21433.134777   -693.171988 -20398.904057   -295.717027
PE07 -24437.148657 -15818.026951   5400.631815   -514.835722
PE08 -13428.321631 -23057.216990 -12823.245744   6030.697580
PE09  24517.007207  15611.315612  -5557.194414   5729.353160
PE11  13625.412744  11613.734024  23574.784353   6188.833930
PE12   2384.292264  27453.411392  10846.521112   5302.153620
PE13 -13431.525232 -11976.198888 -23490.100259    413.789270
PE14   4257.758702  25121.551300 -12929.814575  -1367.458230
PE15  -2461.277983 -27408.175343 -10879.264625    823.830025
PE18 -17405.633907 -23288.830497  -2110.022474  -1495.434160
PE19  -7859.209823  15386.675769  24041.729187    230.933094
PE21 -28014.577089   9530.609197    553.490125   -654.525695
PE24  22698.824341   5199.149259 -18305.864660   -801.498915
PE25  28060.041894  -9410.137277   -744.881982   -528.854149
PE26 -16593.327659  11177.433676 -21808.253863   2023.096160
PE27 -23157.283891  -4555.671341  17855.455199      6.971114
PE30  -3704.508637 -16235.067324  24459.015352   3093.797920
PE31   4736.122190  15858.725042 -24538.438596   -479.324799
PE33  -9924.992108  26693.567119  -8087.406262   -466.686645
EOF
